{
  "type": "FeatureCollection",
  "features": [
    {
      "type": "Feature",
      "properties": {
        "norad_id": 34681,
        "name": "COSMOS 2251 DEB",
        "group": "cosmos-2251-debris",
        "lat": -61.07396422318153,
        "lon": -115.56124316809279,
        "alt_km": 611.0839442383885,
        "timestamp": "2025-12-20T05:41:50.426258+00:00",
        "meta_object_name": "COSMOS 2251 DEB",
        "meta_object_id": "1993-036YB",
        "meta_epoch": "2025-12-19T20:31:54.971904",
        "meta_mean_motion": 14.83371601,
        "meta_eccentricity": 0.00256549,
        "meta_inclination": 74.0633,
        "meta_ra_of_asc_node": 276.3291,
        "meta_arg_of_pericenter": 332.058,
        "meta_mean_anomaly": 84.1264,
        "meta_ephemeris_type": 0,
        "meta_classification_type": "U",
        "meta_norad_cat_id": 34681,
        "meta_element_set_no": 999,
        "meta_rev_at_epoch": 89376,
        "meta_bstar": 0.00094039575,
        "meta_mean_motion_dot": 7.73e-05,
        "meta_mean_motion_ddot": 0,
        "tle_line1": "1 34681U 93036YB  25353.85549736  .00007730  00000+0  94040-3 0  9994",
        "tle_line2": "2 34681  74.0633 276.3291 0025654 332.0580  84.1264 14.83371601893762"
      },
      "geometry": {
        "type": "Point",
        "coordinates": [
          -115.56124316809279,
          -61.07396422318153
        ]
      }
    },
    {
      "type": "Feature",
      "properties": {
        "norad_id": 34682,
        "name": "COSMOS 2251 DEB",
        "group": "cosmos-2251-debris",
        "lat": 63.81458119571813,
        "lon": -146.87997154441388,
        "alt_km": 690.0028902054382,
        "timestamp": "2025-12-20T05:41:50.426269+00:00",
        "meta_object_name": "COSMOS 2251 DEB",
        "meta_object_id": "1993-036YC",
        "meta_epoch": "2025-12-19T23:25:33.062304",
        "meta_mean_motion": 14.58941947,
        "meta_eccentricity": 0.00179866,
        "meta_inclination": 74.0399,
        "meta_ra_of_asc_node": 69.2067,
        "meta_arg_of_pericenter": 201.6181,
        "meta_mean_anomaly": 337.6822,
        "meta_ephemeris_type": 0,
        "meta_classification_type": "U",
        "meta_norad_cat_id": 34682,
        "meta_element_set_no": 999,
        "meta_rev_at_epoch": 88791,
        "meta_bstar": 0.00048085137,
        "meta_mean_motion_dot": 2.231e-05,
        "meta_mean_motion_ddot": 0,
        "tle_line1": "1 34682U 93036YC  25353.97607711  .00002231  00000+0  48085-3 0  9995",
        "tle_line2": "2 34682  74.0399  69.2067 0017986 201.6181 337.6822 14.58941947887913"
      },
      "geometry": {
        "type": "Point",
        "coordinates": [
          -146.87997154441388,
          63.81458119571813
        ]
      }
    },
    {
      "type": "Feature",
      "properties": {
        "norad_id": 34683,
        "name": "COSMOS 2251 DEB",
        "group": "cosmos-2251-debris",
        "lat": 51.90291297129889,
        "lon": 99.27606367241643,
        "alt_km": 682.5571662247148,
        "timestamp": "2025-12-20T05:41:50.426280+00:00",
        "meta_object_name": "COSMOS 2251 DEB",
        "meta_object_id": "1993-036YD",
        "meta_epoch": "2025-12-18T16:25:53.448960",
        "meta_mean_motion": 14.64562534,
        "meta_eccentricity": 0.00178443,
        "meta_inclination": 74.03,
        "meta_ra_of_asc_node": 80.837,
        "meta_arg_of_pericenter": 196.0346,
        "meta_mean_anomaly": 315.7254,
        "meta_ephemeris_type": 0,
        "meta_classification_type": "U",
        "meta_norad_cat_id": 34683,
        "meta_element_set_no": 999,
        "meta_rev_at_epoch": 88435,
        "meta_bstar": 0.00092177876,
        "meta_mean_motion_dot": 4.876e-05,
        "meta_mean_motion_ddot": 0,
        "tle_line1": "1 34683U 93036YD  25352.68464640  .00004876  00000+0  92178-3 0  9994",
        "tle_line2": "2 34683  74.0300  80.8370 0017844 196.0346 315.7254 14.64562534884354"
      },
      "geometry": {
        "type": "Point",
        "coordinates": [
          99.27606367241643,
          51.90291297129889
        ]
      }
    },
    {
      "type": "Feature",
      "properties": {
        "norad_id": 34685,
        "name": "COSMOS 2251 DEB",
        "group": "cosmos-2251-debris",
        "lat": 16.466688846075556,
        "lon": 139.38252014890247,
        "alt_km": 708.8494785479234,
        "timestamp": "2025-12-20T05:41:50.426290+00:00",
        "meta_object_name": "COSMOS 2251 DEB",
        "meta_object_id": "1993-036YF",
        "meta_epoch": "2025-12-19T13:41:37.654944",
        "meta_mean_motion": 14.57563211,
        "meta_eccentricity": 0.0014284,
        "meta_inclination": 74.0288,
        "meta_ra_of_asc_node": 135.794,
        "meta_arg_of_pericenter": 240.4011,
        "meta_mean_anomaly": 239.2488,
        "meta_ephemeris_type": 0,
        "meta_classification_type": "U",
        "meta_norad_cat_id": 34685,
        "meta_element_set_no": 999,
        "meta_rev_at_epoch": 88631,
        "meta_bstar": 0.00068888,
        "meta_mean_motion_dot": 3.111e-05,
        "meta_mean_motion_ddot": 0,
        "tle_line1": "1 34685U 93036YF  25353.57057471  .00003111  00000+0  68888-3 0  9997",
        "tle_line2": "2 34685  74.0288 135.7940 0014284 240.4011 239.2488 14.57563211886314"
      },
      "geometry": {
        "type": "Point",
        "coordinates": [
          139.38252014890247,
          16.466688846075556
        ]
      }
    },
    {
      "type": "Feature",
      "properties": {
        "norad_id": 34689,
        "name": "COSMOS 2251 DEB",
        "group": "cosmos-2251-debris",
        "lat": -44.67898737258079,
        "lon": 46.73778434091475,
        "alt_km": 777.4961655211637,
        "timestamp": "2025-12-20T05:41:50.426300+00:00",
        "meta_object_name": "COSMOS 2251 DEB",
        "meta_object_id": "1993-036YK",
        "meta_epoch": "2025-12-15T15:20:16.539648",
        "meta_mean_motion": 14.04491905,
        "meta_eccentricity": 0.02275051,
        "meta_inclination": 74.0901,
        "meta_ra_of_asc_node": 218.3502,
        "meta_arg_of_pericenter": 286.6099,
        "meta_mean_anomaly": 101.262,
        "meta_ephemeris_type": 0,
        "meta_classification_type": "U",
        "meta_norad_cat_id": 34689,
        "meta_element_set_no": 999,
        "meta_rev_at_epoch": 84382,
        "meta_bstar": 0.0020174062,
        "meta_mean_motion_dot": 4.031e-05,
        "meta_mean_motion_ddot": 0,
        "tle_line1": "1 34689U 93036YK  25349.63908032  .00004031  00000+0  20174-2 0  9998",
        "tle_line2": "2 34689  74.0901 218.3502 0227505 286.6099 101.2620 14.04491905843829"
      },
      "geometry": {
        "type": "Point",
        "coordinates": [
          46.73778434091475,
          -44.67898737258079
        ]
      }
    },
    {
      "type": "Feature",
      "properties": {
        "norad_id": 34721,
        "name": "COSMOS 2251 DEB",
        "group": "cosmos-2251-debris",
        "lat": 51.20027135889741,
        "lon": -25.741774044461984,
        "alt_km": 1054.9577264336358,
        "timestamp": "2025-12-20T05:41:50.426310+00:00",
        "meta_object_name": "COSMOS 2251 DEB",
        "meta_object_id": "1993-036YP",
        "meta_epoch": "2025-12-19T22:50:41.703648",
        "meta_mean_motion": 13.96880423,
        "meta_eccentricity": 0.02230977,
        "meta_inclination": 73.9231,
        "meta_ra_of_asc_node": 313.7346,
        "meta_arg_of_pericenter": 251.3855,
        "meta_mean_anomaly": 166.8871,
        "meta_ephemeris_type": 0,
        "meta_classification_type": "U",
        "meta_norad_cat_id": 34721,
        "meta_element_set_no": 999,
        "meta_rev_at_epoch": 85250,
        "meta_bstar": 0.00080586137,
        "meta_mean_motion_dot": 1.358e-05,
        "meta_mean_motion_ddot": 0,
        "tle_line1": "1 34721U 93036YP  25353.95187157  .00001358  00000+0  80586-3 0  9995",
        "tle_line2": "2 34721  73.9231 313.7346 0223097 251.3855 166.8871 13.96880423852504"
      },
      "geometry": {
        "type": "Point",
        "coordinates": [
          -25.741774044461984,
          51.20027135889741
        ]
      }
    },
    {
      "type": "Feature",
      "properties": {
        "norad_id": 34722,
        "name": "COSMOS 2251 DEB",
        "group": "cosmos-2251-debris",
        "lat": -30.958951397332278,
        "lon": -47.30027714944463,
        "alt_km": 837.0826786951693,
        "timestamp": "2025-12-20T05:41:50.426321+00:00",
        "meta_object_name": "COSMOS 2251 DEB",
        "meta_object_id": "1993-036YQ",
        "meta_epoch": "2025-12-18T21:41:26.918592",
        "meta_mean_motion": 14.11953115,
        "meta_eccentricity": 0.0166832,
        "meta_inclination": 73.8725,
        "meta_ra_of_asc_node": 325.0727,
        "meta_arg_of_pericenter": 249.5424,
        "meta_mean_anomaly": 140.1647,
        "meta_ephemeris_type": 0,
        "meta_classification_type": "U",
        "meta_norad_cat_id": 34722,
        "meta_element_set_no": 999,
        "meta_rev_at_epoch": 86332,
        "meta_bstar": 0.00060950483,
        "meta_mean_motion_dot": 1.244e-05,
        "meta_mean_motion_ddot": 0,
        "tle_line1": "1 34722U 93036YQ  25352.90378378  .00001244  00000+0  60950-3 0  9994",
        "tle_line2": "2 34722  73.8725 325.0727 0166832 249.5424 140.1647 14.11953115863320"
      },
      "geometry": {
        "type": "Point",
        "coordinates": [
          -47.30027714944463,
          -30.958951397332278
        ]
      }
    }
  ]
}